{"fetched_at":"2026-07-18T17:30:17.864Z","source":"https://celestrak.org/NORAD/elements/gp.php?NAME=SPACEMOBILE&FORMAT=JSON","constellation":"ast-spacemobile","records":[{"OBJECT_NAME":"SPACEMOBILE-003","OBJECT_ID":"2024-163A","EPOCH":"2026-07-18T04:05:59.019072","CLASSIFICATION_TYPE":"U","MEAN_MOTION":15.20713856,"ECCENTRICITY":0.00044615,"INCLINATION":52.967,"RA_OF_ASC_NODE":166.9598,"ARG_OF_PERICENTER":203.3197,"MEAN_ANOMALY":156.7595,"EPHEMERIS_TYPE":0,"NORAD_CAT_ID":61045,"ELEMENT_SET_NO":999,"REV_AT_EPOCH":10248,"BSTAR":0.000071564826,"MEAN_MOTION_DOT":0.00001268,"MEAN_MOTION_DDOT":0},{"OBJECT_NAME":"SPACEMOBILE-005","OBJECT_ID":"2024-163B","EPOCH":"2026-07-18T06:51:23.658336","CLASSIFICATION_TYPE":"U","MEAN_MOTION":15.20722937,"ECCENTRICITY":0.00085608,"INCLINATION":52.9757,"RA_OF_ASC_NODE":166.384,"ARG_OF_PERICENTER":205.296,"MEAN_ANOMALY":154.7616,"EPHEMERIS_TYPE":0,"NORAD_CAT_ID":61046,"ELEMENT_SET_NO":999,"REV_AT_EPOCH":10249,"BSTAR":0.00011125988,"MEAN_MOTION_DOT":0.00002152,"MEAN_MOTION_DDOT":0},{"OBJECT_NAME":"SPACEMOBILE-001","OBJECT_ID":"2024-163C","EPOCH":"2026-07-18T03:39:43.074432","CLASSIFICATION_TYPE":"U","MEAN_MOTION":15.20705143,"ECCENTRICITY":0.00067837,"INCLINATION":52.9727,"RA_OF_ASC_NODE":166.7053,"ARG_OF_PERICENTER":200.9381,"MEAN_ANOMALY":159.1336,"EPHEMERIS_TYPE":0,"NORAD_CAT_ID":61047,"ELEMENT_SET_NO":999,"REV_AT_EPOCH":10247,"BSTAR":0.000019358543,"MEAN_MOTION_DOT":0.00000103,"MEAN_MOTION_DDOT":0},{"OBJECT_NAME":"SPACEMOBILE-002","OBJECT_ID":"2024-163D","EPOCH":"2026-07-18T06:25:45.243264","CLASSIFICATION_TYPE":"U","MEAN_MOTION":15.20679207,"ECCENTRICITY":0.00054138,"INCLINATION":52.9785,"RA_OF_ASC_NODE":166.2157,"ARG_OF_PERICENTER":203.1224,"MEAN_ANOMALY":156.9528,"EPHEMERIS_TYPE":0,"NORAD_CAT_ID":61048,"ELEMENT_SET_NO":999,"REV_AT_EPOCH":10249,"BSTAR":-0.00042131939,"MEAN_MOTION_DOT":-0.00009691,"MEAN_MOTION_DDOT":0},{"OBJECT_NAME":"SPACEMOBILE-004","OBJECT_ID":"2024-163E","EPOCH":"2026-07-17T22:07:22.216224","CLASSIFICATION_TYPE":"U","MEAN_MOTION":15.20759542,"ECCENTRICITY":0.00057873,"INCLINATION":52.9683,"RA_OF_ASC_NODE":167.5779,"ARG_OF_PERICENTER":225.7382,"MEAN_ANOMALY":134.3138,"EPHEMERIS_TYPE":0,"NORAD_CAT_ID":61049,"ELEMENT_SET_NO":999,"REV_AT_EPOCH":10244,"BSTAR":0.00053167416,"MEAN_MOTION_DOT":0.00011552,"MEAN_MOTION_DDOT":0},{"OBJECT_NAME":"SPACEMOBILE-006","OBJECT_ID":"2025-309A","EPOCH":"2026-07-18T05:42:56.496960","CLASSIFICATION_TYPE":"U","MEAN_MOTION":15.18662538,"ECCENTRICITY":0.00097963,"INCLINATION":52.9934,"RA_OF_ASC_NODE":189.3935,"ARG_OF_PERICENTER":225.5162,"MEAN_ANOMALY":134.5032,"EPHEMERIS_TYPE":0,"NORAD_CAT_ID":67232,"ELEMENT_SET_NO":999,"REV_AT_EPOCH":3131,"BSTAR":0.000078550443,"MEAN_MOTION_DOT":0.00001328,"MEAN_MOTION_DDOT":0},{"OBJECT_NAME":"SPACEMOBILE-008","OBJECT_ID":"2026-139A","EPOCH":"2026-07-18T04:36:15.598080","CLASSIFICATION_TYPE":"U","MEAN_MOTION":15.12804576,"ECCENTRICITY":0.0005199,"INCLINATION":52.995,"RA_OF_ASC_NODE":121.8023,"ARG_OF_PERICENTER":63.4511,"MEAN_ANOMALY":296.7013,"EPHEMERIS_TYPE":0,"NORAD_CAT_ID":69589,"ELEMENT_SET_NO":999,"REV_AT_EPOCH":467,"BSTAR":0.000037209981,"MEAN_MOTION_DOT":0.00000359,"MEAN_MOTION_DDOT":0},{"OBJECT_NAME":"SPACEMOBILE-009","OBJECT_ID":"2026-139B","EPOCH":"2026-07-18T01:29:06.470880","CLASSIFICATION_TYPE":"U","MEAN_MOTION":15.12697857,"ECCENTRICITY":0.0005388,"INCLINATION":52.9941,"RA_OF_ASC_NODE":122.4098,"ARG_OF_PERICENTER":59.4835,"MEAN_ANOMALY":300.6687,"EPHEMERIS_TYPE":0,"NORAD_CAT_ID":69590,"ELEMENT_SET_NO":999,"REV_AT_EPOCH":465,"BSTAR":0.000036982011,"MEAN_MOTION_DOT":0.00000354,"MEAN_MOTION_DDOT":0},{"OBJECT_NAME":"SPACEMOBILE-010","OBJECT_ID":"2026-139C","EPOCH":"2026-07-18T03:09:11.464416","CLASSIFICATION_TYPE":"U","MEAN_MOTION":15.12535619,"ECCENTRICITY":0.00054148,"INCLINATION":52.9947,"RA_OF_ASC_NODE":122.1344,"ARG_OF_PERICENTER":52.126,"MEAN_ANOMALY":308.022,"EPHEMERIS_TYPE":0,"NORAD_CAT_ID":69591,"ELEMENT_SET_NO":999,"REV_AT_EPOCH":467,"BSTAR":0.000081671785,"MEAN_MOTION_DOT":0.00001139,"MEAN_MOTION_DDOT":0}]}
